COSMOS 2433 (720)       
1 32275U 07052A   26183.87038603 -.00000048  00000+0  00000+0 0  9999
2 32275  65.5669 315.4057 0003073 199.3999 160.5914  2.13104490145397
COSMOS 2432 (719)       
1 32276U 07052B   26185.11473172 -.00000044  00000+0  00000+0 0  9999
2 32276  65.5822 315.4920 0007460 326.1716 212.2631  2.13103452145443
COSMOS 2434 (721)       
1 32393U 07065A   26184.46893560  .00000087  00000+0  00000+0 0  9993
2 32393  64.3197 191.3666 0001287 326.1242  22.8128  2.13101308144115
COSMOS 2436 (723)       
1 32395U 07065C   26181.60164814  .00000080  00000+0  00000+0 0  9994
2 32395  64.3275 191.5357 0017289 353.5646  87.9496  2.13100248144015
COSMOS 2456 (730)       
1 36111U 09070A   26183.67073075 -.00000011  00000+0  00000+0 0  9994
2 36111  65.0199  70.4441 0003835 338.5659 276.2480  2.13103720128753
COSMOS 2457 (733)       
1 36112U 09070B   26183.88660545 -.00000011  00000+0  00000+0 0  9992
2 36112  65.0059  70.2800 0003586 124.2837  63.4116  2.13101401128764
COSMOS 2460 (732)       
1 36402U 10007C   26181.05593492 -.00000064  00000+0  00000+0 0  9997
2 36402  65.4124 314.0307 0001950 124.3103  53.7611  2.13101843127002
COSMOS 2476 (744)       
1 37867U 11064A   26184.63293293 -.00000008  00000+0  00000+0 0  9998
2 37867  65.2791  72.3163 0022385 237.0520 304.2644  2.13104036114115
COSMOS 2477 (745)       
1 37868U 11064B   26184.40113999 -.00000008  00000+0  00000+0 0  9998
2 37868  65.2853  72.4036 0019485 238.2011 305.5847  2.13103279114106
COSMOS 2475 (743)       
1 37869U 11064C   26182.57892419 -.00000013  00000+0  00000+0 0  9992
2 37869  65.2912  72.4865 0025163 252.1303 288.7676  2.13101976114072
COSMOS 2485 (747)       
1 39155U 13019A   26179.64150049 -.00000037  00000+0  00000+0 0  9990
2 39155  65.4258  73.2198 0022897 232.6425 127.1980  2.13103400102529
COSMOS 2492 (754)       
1 39620U 14012A   26183.35442912 -.00000049  00000+0  00000+0 0  9990
2 39620  65.2879 313.4204 0010245 321.1510  38.7779  2.13103547 95563
COSMOS 2500 (755)       
1 40001U 14032A   26184.93175924 -.00000044  00000+0  00000+0 0  9993
2 40001  65.2222 313.1126 0007864 187.8325 172.1641  2.13106144 93817
COSMOS 2501 (702K)      
1 40315U 14075A   26184.72474527  .00000088  00000+0  00000+0 0  9993
2 40315  63.6177 189.7996 0022655 212.6869 147.1965  2.13101469 90209
COSMOS 2514 (751)       
1 41330U 16008A   26184.70928353 -.00000044  00000+0  00000+0 0  9991
2 41330  65.0109 312.4399 0011921 199.8976 160.0650  2.13102677 80979
COSMOS 2522 (752)       
1 42939U 17055A   26184.54697543  .00000087  00000+0  00000+0 0  9992
2 42939  64.0801 191.3275 0010919 240.7350 119.1829  2.13102029 68327
COSMOS 2527 (756)       
1 43508U 18053A   26183.10109635 -.00000009  00000+0  00000+0 0  9990
2 43508  65.5856  73.4097 0006722 233.8398 126.1632  2.13102340 62599
COSMOS 2529 (757)       
1 43687U 18086A   26183.19741874  .00000081  00000+0  00000+0 0  9999
2 43687  64.2962 192.0874 0012102 256.3420 103.5558  2.13102148 59607
COSMOS 2534 (758)       
1 44299U 19030A   26180.66029704  .00000085  00000+0  00000+0 0  9993
2 44299  64.3700 192.1964 0013517 275.0224  73.0621  2.13102425 55189
COSMOS 2544 (759)       
1 44850U 19088A   26183.51498774 -.00000008  00000+0  00000+0 0  9999
2 44850  65.5733  73.2191 0012628 256.5667 103.3590  2.13103168 51047
COSMOS 2545 (760)       
1 45358U 20018A   26184.64845456 -.00000045  00000+0  00000+0 0  9997
2 45358  64.3444 311.8404 0009028 230.0373 129.8930  2.13102788 49018
COSMOS 2547 (705K)      
1 46805U 20075A   26181.55327406  .00000081  00000+0  00000+0 0  9994
2 46805  64.6009 192.0293 0009399 239.7356 120.2111  2.13100012 44197
COSMOS 2557 (706K)      
1 52984U 22075A   26180.30969183 -.00000070  00000+0  00000+0 0  9996
2 52984  64.2907 314.0587 0010591 272.5686  87.3025  2.13102382 30974
COSMOS 2559 (707K)      
1 54031U 22130A   26183.88345399 -.00000049  00000+0  00000+0 0  9992
2 54031  64.2611 314.0154 0012879 179.7670 180.2387  2.13101779 29020
COSMOS 2564 (761)       
1 54377U 22161A   26184.66515580  .00000089  00000+0  00000+0 0  9990
2 54377  64.7432 192.1647 0012270 225.1097 134.8193  2.13102052 27983
COSMOS 2569 (703K)      
1 57517U 23114A   26181.39268046 -.00000020  00000+0  00000+0 0  9993
2 57517  65.3095  72.1752 0010196 296.5286  63.4269  2.13103831 22549
COSMOS 2584 (704K)      
1 63130U 25042A   26183.15651315 -.00000011  00000+0  00000+0 0  9994
2 63130  65.0933  72.2932 0006178 224.7421 135.2742  2.13103981 10362
COSMOS 2596 (708K)      
1 65590U 25206B   26185.11455839 -.00000045  00000+0  00000+0 0  9996
2 65590  64.6242 314.3970 0011141 309.2418 229.0730  2.13100941  6272
